[{"OBJECT_NAME":"KUIPER-00167","OBJECT_ID":"2025-217U","EPOCH":"2026-03-04T07:29:13.097760","MEAN_MOTION":14.79981066,"ECCENTRICITY":6.0e-5,"INCLINATION":51.897,"RA_OF_ASC_NODE":69.3476,"ARG_OF_PERICENTER":47.1432,"MEAN_ANOMALY":312.958,"EPHEMERIS_TYPE":0,"CLASSIFICATION_TYPE":"U","NORAD_CAT_ID":65780,"ELEMENT_SET_NO":999,"REV_AT_EPOCH":2404,"BSTAR":0.0015692,"MEAN_MOTION_DOT":0.00011776,"MEAN_MOTION_DDOT":0},{"OBJECT_NAME":"KUIPER-00168","OBJECT_ID":"2025-217V","EPOCH":"2026-03-04T09:33:31.829184","MEAN_MOTION":14.79921368,"ECCENTRICITY":8.91e-5,"INCLINATION":51.9019,"RA_OF_ASC_NODE":51.4983,"ARG_OF_PERICENTER":86.2031,"MEAN_ANOMALY":273.9033,"EPHEMERIS_TYPE":0,"CLASSIFICATION_TYPE":"U","NORAD_CAT_ID":65781,"ELEMENT_SET_NO":999,"REV_AT_EPOCH":2430,"BSTAR":5.4801e-5,"MEAN_MOTION_DOT":1.96e-6,"MEAN_MOTION_DDOT":0},{"OBJECT_NAME":"KUIPER-00169","OBJECT_ID":"2025-217W","EPOCH":"2026-03-04T09:26:38.430240","MEAN_MOTION":14.7979762,"ECCENTRICITY":7.52e-5,"INCLINATION":51.9012,"RA_OF_ASC_NODE":56.5266,"ARG_OF_PERICENTER":101.9496,"MEAN_ANOMALY":258.155,"EPHEMERIS_TYPE":0,"CLASSIFICATION_TYPE":"U","NORAD_CAT_ID":65782,"ELEMENT_SET_NO":999,"REV_AT_EPOCH":2423,"BSTAR":0.00090985,"MEAN_MOTION_DOT":6.7e-5,"MEAN_MOTION_DDOT":0},{"OBJECT_NAME":"KUIPER-00170","OBJECT_ID":"2025-217X","EPOCH":"2026-03-04T04:25:44.268960","MEAN_MOTION":14.79932353,"ECCENTRICITY":8.3e-5,"INCLINATION":51.8986,"RA_OF_ASC_NODE":62.4276,"ARG_OF_PERICENTER":89.0314,"MEAN_ANOMALY":271.0743,"EPHEMERIS_TYPE":0,"CLASSIFICATION_TYPE":"U","NORAD_CAT_ID":65783,"ELEMENT_SET_NO":999,"REV_AT_EPOCH":2413,"BSTAR":0.0008146,"MEAN_MOTION_DOT":5.994e-5,"MEAN_MOTION_DDOT":0},{"OBJECT_NAME":"KUIPER-00172","OBJECT_ID":"2025-217Z","EPOCH":"2026-03-04T12:00:00.998784","MEAN_MOTION":14.90044163,"ECCENTRICITY":0.0002505,"INCLINATION":51.8972,"RA_OF_ASC_NODE":41.8805,"ARG_OF_PERICENTER":304.1192,"MEAN_ANOMALY":156.6742,"EPHEMERIS_TYPE":0,"CLASSIFICATION_TYPE":"U","NORAD_CAT_ID":65785,"ELEMENT_SET_NO":999,"REV_AT_EPOCH":293,"BSTAR":-0.24374,"MEAN_MOTION_DOT":-0.02151641,"MEAN_MOTION_DDOT":0},{"OBJECT_NAME":"KUIPER-00173","OBJECT_ID":"2025-217AA","EPOCH":"2026-03-04T05:23:50.877888","MEAN_MOTION":14.82266183,"ECCENTRICITY":0.0001279,"INCLINATION":51.9015,"RA_OF_ASC_NODE":56.5807,"ARG_OF_PERICENTER":132.7696,"MEAN_ANOMALY":227.3375,"EPHEMERIS_TYPE":0,"CLASSIFICATION_TYPE":"U","NORAD_CAT_ID":65786,"ELEMENT_SET_NO":999,"REV_AT_EPOCH":2421,"BSTAR":0.00057215,"MEAN_MOTION_DOT":4.389e-5,"MEAN_MOTION_DDOT":0},{"OBJECT_NAME":"KUIPER-00174","OBJECT_ID":"2025-217AB","EPOCH":"2026-03-04T08:44:56.832288","MEAN_MOTION":14.799244,"ECCENTRICITY":0.0001143,"INCLINATION":51.9037,"RA_OF_ASC_NODE":51.6721,"ARG_OF_PERICENTER":65.4548,"MEAN_ANOMALY":294.6533,"EPHEMERIS_TYPE":0,"CLASSIFICATION_TYPE":"U","NORAD_CAT_ID":65787,"ELEMENT_SET_NO":999,"REV_AT_EPOCH":2429,"BSTAR":0.0012366,"MEAN_MOTION_DOT":9.217e-5,"MEAN_MOTION_DDOT":0},{"OBJECT_NAME":"KUIPER-00176","OBJECT_ID":"2025-217AC","EPOCH":"2026-03-04T09:58:37.311168","MEAN_MOTION":14.79950039,"ECCENTRICITY":0.0001066,"INCLINATION":51.9003,"RA_OF_ASC_NODE":66.4199,"ARG_OF_PERICENTER":62.1509,"MEAN_ANOMALY":297.9562,"EPHEMERIS_TYPE":0,"CLASSIFICATION_TYPE":"U","NORAD_CAT_ID":65788,"ELEMENT_SET_NO":999,"REV_AT_EPOCH":2409,"BSTAR":-5.5603e-5,"MEAN_MOTION_DOT":-6.45e-6,"MEAN_MOTION_DDOT":0},{"OBJECT_NAME":"KUIPER-00101","OBJECT_ID":"2025-228A","EPOCH":"2026-03-04T07:01:48.800352","MEAN_MOTION":14.7993665,"ECCENTRICITY":5.88e-5,"INCLINATION":51.9013,"RA_OF_ASC_NODE":24.4415,"ARG_OF_PERICENTER":99.1192,"MEAN_ANOMALY":260.9837,"EPHEMERIS_TYPE":0,"CLASSIFICATION_TYPE":"U","NORAD_CAT_ID":65947,"ELEMENT_SET_NO":999,"REV_AT_EPOCH":2243,"BSTAR":0.00076357,"MEAN_MOTION_DOT":5.605e-5,"MEAN_MOTION_DDOT":0},{"OBJECT_NAME":"KUIPER-00113","OBJECT_ID":"2025-228B","EPOCH":"2026-03-04T06:20:54.478752","MEAN_MOTION":14.7997457,"ECCENTRICITY":8.44e-5,"INCLINATION":51.8996,"RA_OF_ASC_NODE":19.5839,"ARG_OF_PERICENTER":100.4393,"MEAN_ANOMALY":259.6664,"EPHEMERIS_TYPE":0,"CLASSIFICATION_TYPE":"U","NORAD_CAT_ID":65948,"ELEMENT_SET_NO":999,"REV_AT_EPOCH":2249,"BSTAR":0.001106,"MEAN_MOTION_DOT":8.229e-5,"MEAN_MOTION_DDOT":0},{"OBJECT_NAME":"KUIPER-00117","OBJECT_ID":"2025-228C","EPOCH":"2026-03-04T07:05:42.862272","MEAN_MOTION":14.79950789,"ECCENTRICITY":9.42e-5,"INCLINATION":51.8995,"RA_OF_ASC_NODE":21.9491,"ARG_OF_PERICENTER":84.5381,"MEAN_ANOMALY":275.5689,"EPHEMERIS_TYPE":0,"CLASSIFICATION_TYPE":"U","NORAD_CAT_ID":65949,"ELEMENT_SET_NO":999,"REV_AT_EPOCH":2246,"BSTAR":0.0011689,"MEAN_MOTION_DOT":8.705e-5,"MEAN_MOTION_DDOT":0},{"OBJECT_NAME":"KUIPER-00121","OBJECT_ID":"2025-228D","EPOCH":"2026-03-04T01:33:02.841408","MEAN_MOTION":14.79941915,"ECCENTRICITY":0.0001319,"INCLINATION":51.901,"RA_OF_ASC_NODE":17.9658,"ARG_OF_PERICENTER":100.2403,"MEAN_ANOMALY":259.8708,"EPHEMERIS_TYPE":0,"CLASSIFICATION_TYPE":"U","NORAD_CAT_ID":65950,"ELEMENT_SET_NO":999,"REV_AT_EPOCH":2250,"BSTAR":0.0010102,"MEAN_MOTION_DOT":7.49e-5,"MEAN_MOTION_DDOT":0},{"OBJECT_NAME":"KUIPER-00122","OBJECT_ID":"2025-228E","EPOCH":"2026-03-04T04:30:24.387264","MEAN_MOTION":14.79800048,"ECCENTRICITY":5.9e-5,"INCLINATION":51.9008,"RA_OF_ASC_NODE":27.3878,"ARG_OF_PERICENTER":100.6959,"MEAN_ANOMALY":259.407,"EPHEMERIS_TYPE":0,"CLASSIFICATION_TYPE":"U","NORAD_CAT_ID":65951,"ELEMENT_SET_NO":999,"REV_AT_EPOCH":2238,"BSTAR":0.00070208,"MEAN_MOTION_DOT":5.118e-5,"MEAN_MOTION_DDOT":0},{"OBJECT_NAME":"KUIPER-00123","OBJECT_ID":"2025-228F","EPOCH":"2026-03-03T05:02:18.450528","MEAN_MOTION":14.79937341,"ECCENTRICITY":0.00010314,"INCLINATION":51.8995,"RA_OF_ASC_NODE":31.7465,"ARG_OF_PERICENTER":91.7301,"MEAN_ANOMALY":268.3779,"EPHEMERIS_TYPE":0,"CLASSIFICATION_TYPE":"U","NORAD_CAT_ID":65952,"ELEMENT_SET_NO":999,"REV_AT_EPOCH":2223,"BSTAR":0.00084190835,"MEAN_MOTION_DOT":6.203e-5,"MEAN_MOTION_DDOT":0},{"OBJECT_NAME":"KUIPER-00124","OBJECT_ID":"2025-228G","EPOCH":"2026-03-04T02:17:51.565344","MEAN_MOTION":14.79945373,"ECCENTRICITY":6.17e-5,"INCLINATION":51.9004,"RA_OF_ASC_NODE":20.3137,"ARG_OF_PERICENTER":96.1108,"MEAN_ANOMALY":263.9925,"EPHEMERIS_TYPE":0,"CLASSIFICATION_TYPE":"U","NORAD_CAT_ID":65953,"ELEMENT_SET_NO":999,"REV_AT_EPOCH":2247,"BSTAR":0.00099794,"MEAN_MOTION_DOT":7.397e-5,"MEAN_MOTION_DDOT":0},{"OBJECT_NAME":"KUIPER-00125","OBJECT_ID":"2025-228H","EPOCH":"2026-03-04T01:03:55.993248","MEAN_MOTION":14.79926388,"ECCENTRICITY":9.46e-5,"INCLINATION":51.9022,"RA_OF_ASC_NODE":5.567,"ARG_OF_PERICENTER":110.4221,"MEAN_ANOMALY":249.6843,"EPHEMERIS_TYPE":0,"CLASSIFICATION_TYPE":"U","NORAD_CAT_ID":65954,"ELEMENT_SET_NO":999,"REV_AT_EPOCH":2267,"BSTAR":0.0010237,"MEAN_MOTION_DOT":7.59e-5,"MEAN_MOTION_DDOT":0},{"OBJECT_NAME":"KUIPER-00126","OBJECT_ID":"2025-228J","EPOCH":"2026-03-04T06:13:12.299232","MEAN_MOTION":14.79942159,"ECCENTRICITY":6.53e-5,"INCLINATION":51.9025,"RA_OF_ASC_NODE":24.6151,"ARG_OF_PERICENTER":96.7697,"MEAN_ANOMALY":263.334,"EPHEMERIS_TYPE":0,"CLASSIFICATION_TYPE":"U","NORAD_CAT_ID":65955,"ELEMENT_SET_NO":999,"REV_AT_EPOCH":2242,"BSTAR":0.00031869,"MEAN_MOTION_DOT":2.21e-5,"MEAN_MOTION_DDOT":0}]
